[{"id":"39440","name":"CUBEBUG-2 (LO-74)","tle1":"1 39440U 13066AA  26175.43150673  .00003300  00000+0  30669-3 0  9998","tle2":"2 39440  97.8904 124.4401 0057754   5.2541 354.9272 14.93815416678072"},{"id":"39444","name":"FUNCUBE-1 (AO-73)","tle1":"1 39444U 13066AE  26175.67964979  .00006490  00000+0  40220-3 0  9997","tle2":"2 39444  97.8270 147.2816 0036428 175.4480 184.7087 15.09563414680793"},{"id":"39446","name":"UWE-3","tle1":"1 39446U 13066AG  26175.43428147  .00003951  00000+0  34050-3 0  9998","tle2":"2 39446  97.8706 131.5569 0046841 296.6681  62.9747 14.97078120678663"},{"id":"40012","name":"UNISAT-6","tle1":"1 40012U 14033C   26175.99962804  .00002351  00000+0  25553-3 0  9999","tle2":"2 40012  97.7883 328.5744 0045835  44.1963 316.2900 14.88280483647325"},{"id":"40021","name":"DUCHIFAT-1","tle1":"1 40021U 14033M   26175.43754143  .00105271  00000+0  10238-2 0  9991","tle2":"2 40021  98.0461 235.6243 0001842 104.9324 255.2139 15.65947368656884"},{"id":"40025","name":"QB50P1","tle1":"1 40025U 14033R   26175.99266348  .00008784  00000+0  43065-3 0  9997","tle2":"2 40025  98.0964 187.6859 0008613 187.2704 172.8404 15.18365172654213"},{"id":"40908","name":"LILACSAT-2","tle1":"1 40908U 15049K   26176.26946200  .00021726  00000+0  36606-3 0  9992","tle2":"2 40908  97.4642 213.4188 0006228 208.7181 151.3729 15.51691507597006"},{"id":"40967","name":"FOX-1A (AO-85)","tle1":"1 40967U 15058D   26175.73070169  .00001723  00000+0  16308-3 0  9992","tle2":"2 40967  64.7739 255.5404 0130880  53.6729 307.6381 14.90997570114691"},{"id":"41847","name":"CAS-2T & KS-1Q","tle1":"1 41847U 16066G   26176.20550696  .00001561  00000+0  22533-3 0  9998","tle2":"2 41847  98.3820 251.8502 0342889 105.2370 258.6999 14.44718564505957"},{"id":"43017","name":"RADFXSAT (FOX-1B)","tle1":"1 43017U 17073E   26176.14540636  .00007866  00000+0  34436-3 0  9993","tle2":"2 43017  97.4699  43.1975 0148682 301.5265  57.1515 15.12819327466594"},{"id":"43678","name":"DIWATA-2B","tle1":"1 43678U 18084H   26176.30570145  .00001856  00000+0  15241-3 0  9991","tle2":"2 43678  98.1206  12.8675 0012976 144.6111 215.5975 15.00483339417437"},{"id":"43700","name":"ES'HAIL 2","tle1":"1 43700U 18090A   26176.21850447  .00000154  00000+0  00000+0 0  9993","tle2":"2 43700   0.0180 336.3405 0002163 153.1552 248.3240  1.00273854 27757"},{"id":"43770","name":"FOX-1CLIFF (AO-95)","tle1":"1 43770U 18099N   26176.13902104  .00013017  00000+0  49535-3 0  9990","tle2":"2 43770  97.4384 236.3562 0007227 326.7898  33.2886 15.26862763414438"},{"id":"43786","name":"ITASAT","tle1":"1 43786U 18099AE  26176.12374923  .00007218  00000+0  34610-3 0  9992","tle2":"2 43786  97.4030 227.4770 0011297 331.0852  28.9756 15.19145163414118"},{"id":"43803","name":"JY1SAT (JO-97)","tle1":"1 43803U 18099AX  26176.12045785  .00020902  00000+0  63898-3 0  9998","tle2":"2 43803  97.4134 238.9829 0004922 226.5613 133.5221 15.33882017414847"},{"id":"43880","name":"UWE-4","tle1":"1 43880U 18111E   26175.33342868  .00030606  00000+0  61651-3 0  9999","tle2":"2 43880  97.5840 104.0552 0004422 306.3927  53.6913 15.46518147411888"},{"id":"44881","name":"TIANYAN 01","tle1":"1 44881U 19093C   26176.25685919  .00000193  00000+0  27747-4 0  9997","tle2":"2 44881  97.7531 248.2926 0014992  62.9164 297.3580 14.86529062352619"},{"id":"44909","name":"RS-44 & BREEZE-KM R/B","tle1":"1 44909U 19096E   26175.97968002  .00000031  00000+0  72192-4 0  9991","tle2":"2 44909  82.5224 334.5259 0218424 126.0184 236.1380 12.79748967303341"},{"id":"46495","name":"SALSAT","tle1":"1 46495U 20068K   26176.25605951  .00008540  00000+0  29756-3 0  9997","tle2":"2 46495  97.8852 179.8123 0007805 273.7441  86.2905 15.29904088316598"},{"id":"50466","name":"XW-3 (CAS-9)","tle1":"1 50466U 21131B   26176.31547689  .00000434  00000+0  14779-3 0  9995","tle2":"2 50466  98.4979 268.6611 0005359  77.8191 282.3598 14.41363913236287"},{"id":"53109","name":"GREENCUBE (IO-117)","tle1":"1 53109U 22080E   26174.72102765 -.00000003  00000+0  00000+0 0  9992","tle2":"2 53109  70.1445 295.9726 0008926 288.1418  71.8270  6.42583215 92482"},{"id":"57172","name":"UMKA 1 (RS40S)","tle1":"1 57172U 23091G   26176.25242583  .00007458  00000+0  33949-3 0  9994","tle2":"2 57172  97.5051 234.9186 0014329  92.7767 267.5108 15.20902926165233"},{"id":"57178","name":"CUBESX-HSE 3 (RS42S)","tle1":"1 57178U 23091N   26176.27674558  .00016663  00000+0  55036-3 0  9992","tle2":"2 57178  97.5093 241.9664 0011646  69.5906 290.6585 15.31401475165668"},{"id":"57180","name":"MONITOR-3 (RS58S)","tle1":"1 57180U 23091Q   26176.25367979  .00013908  00000+0  51045-3 0  9994","tle2":"2 57180  97.5086 239.7591 0012827  75.8601 284.4063 15.27991358165527"},{"id":"57182","name":"MONITOR-4 (RS57S)","tle1":"1 57182U 23091S   26176.29777125  .00013107  00000+0  48001-3 0  9997","tle2":"2 57182  97.5080 239.7751 0012851  76.0047 284.2621 15.28077575165531"},{"id":"57184","name":"MONITOR-2 (RS39S)","tle1":"1 57184U 23091U   26176.28383691  .00005533  00000+0  26732-3 0  9990","tle2":"2 57184  97.5074 234.5144 0012775  86.6482 273.6214 15.18979315165183"},{"id":"57187","name":"SVYATOBOR 1 (RS60S)","tle1":"1 57187U 23091X   26176.25234237  .00011202  00000+0  42798-3 0  9991","tle2":"2 57187  97.5091 240.1141 0010606  70.1244 290.1137 15.26740900165543"},{"id":"57189","name":"VIZARD-METEO (RS38S)","tle1":"1 57189U 23091Z   26176.22504618  .00020750  00000+0  58801-3 0  9993","tle2":"2 57189  97.5094 245.8719 0007698  53.1711 307.0237 15.36259666165924"},{"id":"57191","name":"POLYTECH-UNIVERSE 3 (R*)","tle1":"1 57191U 23091AB  26176.30995963  .00006356  00000+0  30426-3 0  9991","tle2":"2 57191  97.5048 234.0446 0017081 101.1195 259.1961 15.19184060165185"},{"id":"57203","name":"UTMN 2 (RS27S)","tle1":"1 57203U 23091AP  26176.22461939  .00015386  00000+0  49599-3 0  9991","tle2":"2 57203  97.5089 243.5574 0008760  59.6938 300.5169 15.32230916165770"}]